name,address,city,state,category,yelp_url
Shake Shack,E 23rd St and Madison Ave,Manhattan,NY,Burgers,http://www.yelp.com/biz/shake-shack-new-york-2,25,2,4.0,5035
Big Gay Ice Cream,125 E 7th St.,Manhattan,NY,Desserts,http://www.yelp.com/biz/big-gay-ice-cream-shop-new-york,25,1,4.0,1020
Crif Dogs,113 St. Marks Place,Manhattan,NY,Hot dogs,http://www.yelp.com/biz/crif-dogs-new-york,25,1,4.0,1566
Mighty Quinn's,103 2nd Ave,Manhattan,NY,BBQ,http://www.yelp.com/biz/mighty-quinns-barbeque-new-york,25,2,4.0,770
Xe May,96 St Marks Place,Manhattan,NY,Vietnamese,http://www.yelp.com/biz/xe-may-sandwich-shop-new-york,25,1,4.5,360
Luzzo's,211 First Ave,Manhattan,NY,Pizza,http://www.yelp.com/biz/luzzos-new-york,25,2,4.0,737
Caracas,93 1/2 E 7th St,Manhattan,NY,Venezuelan,http://www.yelp.com/biz/caracas-arepa-bar-new-york,25,2,4.0,2003
Ippudo,65 4th Ave,Manhattan,NY,Ramen,http://www.yelp.com/biz/ippudo-ny-new-york,25,2,4.0,6427
El Sabroso,265 W 37th St,Manhattan,NY,Cuban,http://www.yelp.com/biz/el-sabroso-new-york,25,1,4.0,62
Soup Spot,220 W 31st St ,Manhattan,NY,Soup,http://www.yelp.com/biz/soup-spot-new-york,25,1,4.5,143
Uncle Yu’s,2005 Crow Canyon Pl,San Ramon,California,Chinese,http://www.yelp.com/biz/uncle-yus-san-ramon,0,2,3.5,212
Pete’s Brass Rail and Carwash,201 Hartz Ave,Danville,California,American,http://www.yelp.com/biz/petes-brass-rail-and-car-wash-danville,0,2,3.5,323
Scott’s Seafood Grill and Bar,2 Broadway,Oakland,California,Seafood,http://www.yelp.com/biz/scotts-seafood-grill-and-bar-oakland,0,3,3.5,498
Akira Bistro,499 San Ramon Valley Blvd,Danville,California,Sushi,http://www.yelp.com/biz/akira-bistro-danville,0,2,3.5,103
Sideboard,90 Railroad Ave,Danville,California,breakfast,http://www.yelp.com/biz/sideboard-danville-2,0,2,4.0,122
Off the Waffle,2540 Willamette St,Eugene,Oregon,breakfast,http://www.yelp.com/biz/off-the-waffle-eugene-8,0,1,4.0,193
Ascona Pizza Company,3414 Camino Tassajara,Danville,California,pizza,http://www.yelp.com/biz/off-the-waffle-eugene-8,0,1,4.0,193
High Tech Burrito,1815 Ygnacio Valley Rd,Walnut Creek,California,Mexican,http://www.yelp.com/biz/high-tech-burrito-walnut-creek,0,1,3.5,102
Culver’s,123 US Highway 51 N,Woodruff,Wisconsin,burgers,http://www.yelp.com/biz/culvers-woodruff,0,0,4.0,1
Gino’s East,162 E Superior St,Chicago,Illinois,pizza,http://www.yelp.com/biz/the-original-ginos-east-of-chicago-chicago-2,0,2,3.5,1121
St. Arnolds,1827 Jefferson Pl NW,Washington,DC,Mussel bar,http://www.yelp.com/biz/st-arnolds-on-jefferson-washington,1,2,4.0,374
Urban Taco,5331 E Mockingbird Ln,Dallas,TX,Taqueria,http://www.yelp.com/biz/urban-taco-dallas,1,2,3.5,181
Toki Underground,1234 H St NE,Washington,DC,Ramen,http://www.yelp.com/biz/toki-underground-washington,1,2,4.0,940
Maison Premiere,298 Bedford Ave,Brooklyn,NY,Oyster house,http://www.yelp.com/biz/maison-premiere-brooklyn,1,3,4.0,555
Modesto,5257 Shaw Ave,St. Louis,MO,Tapas bar,http://www.yelp.com/biz/modesto-tapas-bar-and-restaurant-saint-louis-2,1,2,4.0,201
Cava Mezze,527 8th St SE,Washington,DC,Greek,http://www.yelp.com/biz/cava-mezze-dc-washington-2,1,2,4.0,719
Ramen Dojo,805 S B St,San Mateo,CA,Ramen,http://www.yelp.com/biz/ramen-dojo-san-mateo,1,2,4.0,2476
Charlie Vergos’ Rendezvous,52 S 2nd St,Memphis,TN,Barbeque,http://www.yelp.com/biz/charlie-vergos-rendezvous-memphis,1,2,3.5,908
Gusta Pizza,Via de' Michelozzi 13R,Florence,Italy,Pizza,http://www.yelp.com/biz/gustapizza-firenze,1,0,4.0,68
Tuck Shop,68 E 1st street,New York,NY,pies,http://www.yelp.com/biz/tuck-shop-new-york,2,1,4.0,284
Boqueria,53 W 19th St,New York,NY,tapas,http://www.yelp.com/biz/boqueria-new-york,2,3,4.0,681
Momofuku,171 1st Ave,New York,NY,Asian Fusion,http://www.yelp.com/biz/momofuku-noodle-bar-new-york,2,2,3.5,2583
Crif Dogs,113 Saint Marks Place,New York,NY,hot dogs,http://www.yelp.com/biz/crif-dogs-new-york,2,1,4.0,1566
Da Silvano,260 Avenue of the Americas,New York,NY,Italian,http://www.yelp.com/biz/da-silvano-new-york,2,3,3.5,193
SD26,19 E 26th St,New York,NY,Italian,http://www.yelp.com/biz/sd26-restaurant-and-wine-bar-new-york,2,3,3.5,279
Awash,947 Amsterdam Ave,New York,NY,Ethiopian,http://www.yelp.com/biz/awash-ethiopian-restaurant-new-york-2,2,2,4.0,244
E&O Asian Kitchen,314 Sutter St,San Francisco,CA,Asian Fusion,http://www.yelp.com/biz/e-and-o-asian-kitchen-san-francisco-2,2,3,3.5,261
Homma's brown rice sushi,2363 Birch St,Palo Alto,CA,sushi,http://www.yelp.com/biz/hommas-brown-rice-sushi-palo-alto,2,2,4.0,392
Evvia,420 Emerson St,Palo Alto,CA,Greek,http://www.yelp.com/biz/evvia-estiatorio-palo-alto,2,3,4.5,1468
Kirin,2700 Yulupa Ave,Santa Rosa,CA,Chinese,http://www.yelp.com/biz/kirin-restaurant-santa-rosa,3,2,3.5,135
Cafe Citti,9047 Sonoma Hwy,Kenwood,CA,Italian,http://www.yelp.com/biz/cafe-citti-kenwood,3,2,4.0,273
Plutos,482 University Ave,Palo Alto,CA,American,http://www.yelp.com/biz/plutos-palo-alto-2,3,1,4.0,823
Los Altos Grill,233 3rd St,Los Altos,CA,American,http://www.yelp.com/biz/los-altos-grill-los-altos,3,3,4.0,864
Rosso Pizzeria,53 Montgomery Dr,Santa Rosa,CA,Italian,http://www.yelp.com/biz/rosso-pizzeria-and-wine-bar-santa-rosa,3,2,4.0,427
Wise Sons Jewish Deli,3150 24th St,San Francisco,CA,Jewish,http://www.yelp.com/biz/wise-sons-jewish-delicatessen-san-francisco,3,2,3.5,388
Bay Cities,1517 Lincoln Blvd,Santa Monica,CA,American,http://www.yelp.com/biz/bay-cities-italian-deli-and-bakery-santa-monica,3,1,4.5,2981
The Counter,369 California Ave,Palo Alto,CA,American,http://www.yelp.com/biz/the-counter-palo-alto-2,3,2,3.5,1269
Pho Vi Hoa,4546 El Camino Real,Los Altos,CA,Vietnamese,http://www.yelp.com/biz/pho-vi-hoa-los-altos,3,1,3.5,678
Tofu House,4127 El Camino Real,Palo Alto,CA,Korean,http://www.yelp.com/biz/so-gong-dong-tofu-house-palo-alto,3,2,4.0,849
Evvia,420 Emerson Street,Palo Alto,CA,Greek,http://www.yelp.com/biz/evvia-estiatorio-palo-alto,4,3,4.5,1468
Tamarine,546 University Avenue,Palo Alto,CA,Vietnamese,http://www.yelp.com/biz/tamarine-palo-alto,4,3,4.0,1174
Sundance The Steakhouse,1921 El Camino Real,Palo Alto,CA,American Steakhouse,http://www.yelp.com/biz/sundance-the-steakhouse-palo-alto,4,3,4.0,767
Reposado,236 Hamilton Avenue,Palo Alto,CA,Mexican,http://www.yelp.com/biz/reposado-palo-alto,4,3,3.5,824
Darbar,129 Lytton Avenue,Palo Alto,CA,Indian,http://www.yelp.com/biz/darbar-indian-cuisine-palo-alto,4,2,4.0,465
Amber Dhara,150 University Avenue,Palo Alto,CA,Indian,http://www.yelp.com/biz/amber-dhara-palo-alto,4,2,3.5,152
Terrone,448 S California Avenue,Palo Alto,CA,Italian,http://www.yelp.com/biz/ter%C3%BAn-palo-alto-3,4,2,4.0,426
Osteria,247 Hamilton Avenue,Palo Alto,CA,Italian,http://www.yelp.com/biz/osteria-palo-alto,4,2,3.5,614
John Bentley's,2915 El Camino Real,Redwood City,CA,American,http://www.yelp.com/biz/john-bentleys-redwood-city,4,3,4.0,289
Su Hong Eatery,4256 El Camino Real,Palo Alto,CA,Chinese,http://www.yelp.com/biz/su-hong-eatery-palo-alto,4,2,3.0,219
Little Star Pizza,846 Divisadero St,San Francisco,CA,Pizza and beer,http://www.yelp.com/biz/little-star-pizza-san-francisco,5,2,4.5,2301
Viks Chaat,2390 4th St,Berkeley,CA,Indian,http://www.yelp.com/biz/viks-chaat-berkeley,5,1,4.0,1528
Le Cheval,1007 Clay St,Oakland,CA,Vietnamese,http://www.yelp.com/biz/le-cheval-oakland,5,2,3.5,953
Coconuts Caribbean Restaurant,642 Ramona St,Palo Alto,CA,Caribbean,http://www.yelp.com/biz/coconuts-caribbean-restaurant-and-bar-palo-alto,5,2,4.0,1100
À Côté,5478 College Ave,Oakland,CA,French Spanish Italian,http://www.yelp.com/biz/%C3%A0-c%C3%B4t%C3%A9-oakland-2,5,3,4.0,1020
El Farolito,2779 Mission St,San Francisco,CA,Mexican,http://www.yelp.com/biz/el-farolito-san-francisco-2,5,1,4.0,3046
Barlata,4901 Telegraph Ave.,Oakland,CA,Spanish,http://www.yelp.com/biz/barlata-oakland,5,2,3.5,549
Boot and Shoe Service,3308 Grand Ave,Oakland,CA,Pizza,http://www.yelp.com/biz/boot-and-shoe-service-oakland,5,2,4.0,852
Anula's Cafe,1319 Franklin St,Oakland,CA,Sri Lankan,http://www.yelp.com/biz/anulas-cafe-oakland,5,1,4.5,71
Galli,45 Mercer St,New York,NY,Italian,http://www.yelp.com/biz/galli-restaurant-new-york,6,2,4.0,244
Tofu House,4127 El Caminos Real,Palo Alto,CA,Korean,http://www.yelp.com/biz/so-gong-dong-tofu-house-palo-alto,6,2,4.0,849
Ippudo NY,321 W 51st St,New York,NY,Japanese,http://www.yelp.com/biz/ippudo-ny-new-york,6,2,4.0,6427
Kunjip,9 W 32nd St,New York,NY,Korean,http://www.yelp.com/biz/kun-jip-new-york,6,2,3.0,1225
Houston's,1 Riverside Square Mall #181,Hackensack,NJ,American,http://www.yelp.com/biz/houstons-restaurant-hackensack,6,3,4.0,248
In-N-Out,1159 N Rengstorff Ave,Mountain View,CA,Burgers,http://www.yelp.com/biz/in-n-out-burger-mountain-view,6,1,4.0,325
Murray's Cheese Bar,264 Bleeker St,New York,NY,Italian,http://www.yelp.com/biz/murrays-cheese-bar-new-york,6,2,4.0,244
Hope Kee,21 Mott St,New York,NY,Chinese,http://www.yelp.com/biz/hop-kee-new-york,6,2,3.5,461
Buffalo Wild Wings,1620 Saratoga Ave,San Jose,CA,American,http://www.yelp.com/biz/buffalo-wild-wings-san-jose,6,2,3.0,652
Mr. Chow,324 E 57th St,New York,NY,Chinese,http://www.yelp.com/biz/mr-chow-new-york,6,4,3.0,154
Homma's Brown Rice Sushi,2363 Birch Street (Suite B),Palo Alto,CA,Sushi,http://www.yelp.com/biz/hommas-brown-rice-sushi-palo-alto,7,2,4.0,392
Tacolicious,632 Emerson Street,Palo Alto,CA,Mexican,http://www.yelp.com/biz/tacolicious-palo-alto,7,2,3.5,330
Sprout Cafe,168 University Avenue,Palo Alto,CA,Soup/Salad,http://www.yelp.com/biz/sprout-cafe-palo-alto,7,2,3.5,778
Tamarine,546 University Avenue,Palo Alto,CA,Vietnamese,http://www.yelp.com/biz/tamarine-palo-alto,7,3,4.0,1174
Joya,339 University Avenue,Palo Alto,CA,Tapas,http://www.yelp.com/biz/joya-palo-alto,7,3,3.5,1154
Evvia Estiatorio,420 Emerson Street,Palo Alto,CA,Greek,http://www.yelp.com/biz/evvia-estiatorio-palo-alto,7,3,4.5,1468
Verde Tea Cafe,852 Villa Street,Mountain View,CA,Bubble Tea,http://www.yelp.com/biz/verde-tea-cafe-mountain-view,7,1,3.5,891
Palo Alto Creamery,566 Emerson Street,Palo Alto,CA,American Diner,http://www.yelp.com/biz/palo-alto-creamery-palo-alto-2,7,2,4.0,812
Pizzeria Delfina,651 Emerson Street,Palo Alto,CA,Pizza,http://www.yelp.com/biz/pizzeria-delfina-palo-alto,7,2,3.5,111
The Annex at St. Michael's Alley,806 Emerson Street,Palo Alto,CA,Breakfast/Brunch,http://www.yelp.com/biz/the-annex-at-st-michaels-alley-palo-alto,7,2,4.0,480
Serpentine,2495 3rd St,San Francisco,CA,American,http://www.yelp.com/biz/serpentine-san-francisco,8,2,4.0,1061
Frances,3870 17th St,San Francisco,CA,American,http://www.yelp.com/biz/frances-san-francisco,8,3,4.5,1036
Izakaya Sozai,1500 Irving St,San Francisco,CA,Japanese,http://www.yelp.com/biz/izakaya-sozai-san-francisco,8,2,4.0,1289
Kusakabe,584 Washington St,San Francisco,CA,Japanese,http://www.yelp.com/biz/kusakabe-san-francisco,8,4,4.5,76
Public House,830 Kline St,San Diego,CA,Burgers,http://www.yelp.com/biz/public-house-san-diego,8,2,4.0,246
Bohemian,57 Great Jones St,New York,NY,Japanese,http://www.yelp.com/biz/public-house-san-diego,8,2,4.0,246
Mari Vanna,41 E 20th St,New York,NY,Russian,http://www.yelp.com/biz/mari-vanna-new-york-2,8,3,4.0,261
Spruce,3640 Sacramento St,San Francisco,CA,American,http://www.yelp.com/biz/spruce-san-francisco,8,4,4.0,1311
Tra Vigne,1050 Charter Oak Ave,St Helena,CA,Italian,http://www.yelp.com/biz/tra-vigne-restaurant-saint-helena,8,3,4.5,653
Sol Bar,755 Silverada Trail,Calistoga,CA,American,http://www.yelp.com/biz/solbar-calistoga,8,3,4.0,532
Il Sorrentino,4 Rue de Monttessuy,Paris,France,Italian,http://www.yelp.com/biz/il-sorrentino-paris,9,0,4.5,22
Benkay,61 Quai de Grenelle,Paris,France,Japanese,http://www.yelp.com/biz/benkay-paris,9,0,4.0,32
Ruth’s Chris,1801 Connecticut Avenue NW,Washington,DC,Steak House,http://www.yelp.com/biz/ruths-chris-steak-house-washington,9,4,3.5,152
Fuki Sushi,4119 El Camino Real,Palo Alto,CA,Japanese,http://www.yelp.com/biz/fuki-sushi-palo-alto,9,3,3.5,607
Benihana,38 N La Cienega Blvd,Beverly Hills,CA,Japanese,http://www.yelp.com/biz/benihana-beverly-hills,9,3,3.5,324
Au Bon Acceuil,14 rue de Monttessuy,Paris,France,French,http://www.yelp.com/biz/au-bon-accueil-paris-3,9,0,4.0,16
In-N-Out Burger,3001 Mission College Blvd,Santa Clara,CA,American,http://www.yelp.com/biz/in-n-out-santa-clara,9,1,4.0,289
El Coyote,7312 Beverly Blvd,Los Angeles,CA,Mexican,http://www.yelp.com/biz/el-coyote-mexican-cafe-los-angeles,9,2,3.0,935
The Original Red Onion,736 Silver Spur Road,Rolling Hills Estates,CA,Mexican,http://www.yelp.com/biz/red-onion-rolling-hills-estates,9,2,3.5,206
Marks & Spencers Café,6 Sidney Street,Cambridge,UK,British,http://www.yelp.com/biz/marks-and-spencer-cambridge,9,0,4.0,4
Monk’s Café,264 S 16th St,Philadelphia,PA,Belgian Pub,http://www.yelp.com/biz/monks-caf%C3%A9-philadelphia-3,10,2,4.0,1401
Craigie On Main,853 Main St,Cambridge,MA,American,http://www.yelp.com/biz/craigie-on-main-cambridge,10,4,4.5,860
Cambridge Common,1667 Massachusetts Ave,Cambridge,MA,American Pub,http://www.yelp.com/biz/cambridge-common-cambridge,10,2,4.0,461
Zahav,237 St. James Place,Philadelphia,PA,Israeli,http://www.yelp.com/biz/zahav-philadelphia,10,3,4.5,997
Amada,217 Chestnut St,Philadelphia,PA,Tapas,http://www.yelp.com/biz/amada-philadelphia,10,3,4.5,1236
Barbuzzo,110 South 13th St,Philadelphia,PA,Mediterranean,http://www.yelp.com/biz/barbuzzo-philadelphia,10,3,4.5,960
Matyson,37 South 19th St,Philadelphia,PA,American (New),http://www.yelp.com/biz/matyson-philadelphia,10,3,4.0,373
Dinosaur Bar-B-Que,700 W 125th St,New York,NY,Barbeque,http://www.yelp.com/biz/dinosaur-bar-b-que-new-york-2,10,2,4.0,1772
Audrey Claire,276 S 20th St,Philadelphia,PA,American (New),http://www.yelp.com/biz/audrey-claire-philadelphia,10,2,4.0,445
Bianca Restaurant,5 Bleecker St,New York,NY,Italian,http://www.yelp.com/biz/bianca-restaurant-new-york,10,2,4.0,843
In n Out,53 El Camino Real,Mountain View,CA,fast,http://www.yelp.com/biz/in-n-out-burger-mountain-view-2,11,1,4.0,180
Chipotle,2675 El Camino Real,Palo Alto,CA,fast,http://www.yelp.com/biz/chipotle-mexican-grill-palo-alto-2,11,1,3.0,171
Nola,535 Ramona,Palo Alto,CA,cajun,http://www.yelp.com/biz/nola-restaurant-and-bar-palo-alto,11,2,3.5,1842
Old Pro,541 Ramona,Palo Alto,CA,American,http://www.yelp.com/biz/the-old-pro-palo-alto,11,2,3.0,893
Evvia,420 Emerson,Palo Alto,CA,Greek,http://www.yelp.com/biz/evvia-estiatorio-palo-alto,11,3,4.5,1468
Reposado,236 Hamilton,Palo Alto,CA,Mexican,http://www.yelp.com/biz/reposado-palo-alto,11,3,3.5,824
Patio,412 Emerson,Palo Alto,CA,American,http://www.yelp.com/biz/the-patio-palo-alto,11,2,3.0,215
Tamarine,546 University,Palo Alto,CA,Vietnamese,http://www.yelp.com/biz/tamarine-palo-alto,11,3,4.0,1174
Gravity,544 Emerson,Palo Alto,CA,Italian,http://www.yelp.com/biz/gravity-bistro-and-wine-bar-palo-alto,11,2,3.5,323
Calafia,855 El Camino,Palo Alto,CA,Vegetarian,http://www.yelp.com/biz/calafia-café-and-market-a-go-go-palo-alto-2,11,2,3.5,715
Mi Piace,25 E Colorado Blvd,Pasadena,CA,Italian,http://www.yelp.com/biz/mi-piace-pasadena,12,2,3.5,1881
Odori Sushi,2111 El Camino Real,Palo Alto,CA,Japanese,http://www.yelp.com/biz/odori-sushi-and-teppanyaki-palo-alto,12,2,4.0,62
The Misfit Restaurant,225 Santa Monica Blvd,Santa Monica,CA,American,http://www.yelp.com/biz/the-misfit-restaurant-bar-santa-monica,12,2,4.0,1538
Musha Restaurant,424 Wilshire Blvd,Santa Monica,CA,Japanese Sushi Bars,http://www.yelp.com/biz/musha-restaurant-santa-monica,12,2,4.0,882
Alcove Cafe and Bakery,1929 Hillhurst Ave,Los Angeles,CA,Bakeries,http://www.yelp.com/biz/alcove-cafe-and-bakery-los-angeles,12,2,4.0,2640
Sunny Spot,822 Washington Blvd,Venice,CA,American,http://www.yelp.com/biz/sunny-spot-venice-2,12,2,3.5,548
Bottega Louie,700 S Grand Ave,Los Angeles,CA,Italian,http://www.yelp.com/biz/bottega-louie-los-angeles,12,2,4.0,8710
Urth Caffe,2327 Main St,Santa Monica,CA,Coffee Tea,http://www.yelp.com/biz/urth-caffe-santa-monica,12,2,4.0,1825
Umami Burger,500 Broadway,Santa Monica,CA,Burgers,http://www.yelp.com/biz/umami-burger-santa-monica,12,2,4.0,1817
Faith and Flower,705 W 9th St,Los Angeles,CA,American,http://www.yelp.com/biz/faith-and-flower-los-angeles,12,3,4.0,302
Asian Box,855 El Camino Real,Palo Alto,CA,vietnamese,http://www.yelp.com/biz/asian-box-palo-alto,13,1,3.5,326
The Kathi Roll Company,99 MacDougal St,New York,NY,indian,http://www.yelp.com/biz/the-kati-roll-company-new-york,13,1,4.0,571
Noodles and Company,2602 Baseline Rd,Boulder,CO,fusion,http://www.yelp.com/biz/noodles-and-company-boulder,13,1,3.5,28
The Garlic Knot,10143 W Chatfield Ave,Littleton,CO,pizza,http://www.yelp.com/biz/the-garlic-knot-littleton,13,1,3.5,34
Saravanaa Bhavan,1305 S Mary Ave,Sunnyvale,CA,indian,http://www.yelp.com/biz/saravanaa-bhavan-sunnyvale-2,13,2,3.0,617
Taqueria Cancun,2288 Mission St,San Francisco,CA,mexican,http://www.yelp.com/biz/taqueria-canc%C3%BAn-san-francisco-5,13,1,4.0,1598
Araya's Place,2808 E Madison St,Seattle,WA,thai,http://www.yelp.com/biz/arayas-place-seattle-3,13,2,4.5,70
Thai Idea,1457 Beach Park Blvd,Foster City,CA,thai,http://www.yelp.com/biz/thai-idea-foster-city,13,2,4.0,213
Curry Up Now,321 Hamilton Ave,Palo Alto,CA,indian,http://www.yelp.com/biz/curry-up-now-palo-alto-3,13,2,3.5,303
Terun,448 S California Ave,Palo Alto,CA,italian,http://www.yelp.com/biz/ter%C3%BAn-palo-alto-3,13,2,4.0,426
Sen Dai Sushi,224 N Abel St,Milpitas,CA,Japanese,http://www.yelp.com/biz/sen-dai-sushi-milpitas,14,2,4.0,1774
Fu Lam Mum,153 Castro St,Mountain View,CA,Dim Sum,http://www.yelp.com/biz/fu-lam-mum-mountain-view,14,2,3.5,896
So Gong Dong Tofu House,4127 El Camino Real,Palo Alto,CA,Korean,http://www.yelp.com/biz/so-gong-dong-tofu-house-palo-alto,14,2,4.0,849
Kirin Chinese Restaurant,485 Castro St,Mountain View,CA,Chinese,http://www.yelp.com/biz/kirin-chinese-restaurant-mountain-view,14,2,3.5,297
TaiPan,560 Waverley St,Palo Alto,CA,Chinese,http://www.yelp.com/biz/taipan-palo-alto,14,3,3.5,384
Buffalo Wild Wings,505 E Nifong Blvd,Columbia,MO,Chicken Wings,http://www.yelp.com/biz/buffalo-wild-wings-columbia,14,2,2.5,11
Flat Branch Pub & Brewing,115 S 5th St,Columbia,MO,American(Traditional),http://www.yelp.com/biz/flat-branch-pub-and-brewing-columbia,14,2,4.0,188
Bamboo Terrace,3101 W Broadway,Columbia,MO,Chinese,http://www.yelp.com/biz/bamboo-terrace-columbia,14,2,4.0,16
Olive Garden,2515 El Camino Real,Palo Alto,CA,Italian,http://www.yelp.com/biz/olive-garden-italian-restaurant-palo-alto,14,2,3.0,301
Coopersburg Diner,336 N 3rd Street,Coopersburg,PA,Diner,http://www.yelp.com/biz/coopersburg-diner-coopersburg,20,1,4.0,35
Thaiphoon,543 Emerson Street,Palo Alto,CA,Thai,http://www.yelp.com/biz/thaiphoon-palo-alto,20,2,3.0,337
Sam's Chowder House,185 University Avenue,Palo Alto,CA,Seafood,http://www.yelp.com/biz/sams-chowder-house-palo-alto,20,2,3.0,186
Blondie's,2340 Telegraph Avenue,Berkeley,CA,Pizza,http://www.yelp.com/biz/blondies-pizza-berkeley,20,1,3.0,447
Tacos Los Gemelos,1630 El Camino Real,Redwood City,CA,Mexican,http://www.yelp.com/biz/tacos-los-gemelos-redwood-city,20,1,4.0,42
Cafe 220,220 University Avenue,Palo Alto,CA,Mediterranean,http://www.yelp.com/biz/cafe-220-palo-alto,20,1,3.0,279
Copperhead Grille,5737 Route 378,Bethlehem,PA,American,http://www.yelp.com/biz/copperhead-grille-bethlehem,20,2,4.0,37
NOLA Restaurant and Bar,535 Ramona Street,Palo Alto,CA,Cajun,http://www.yelp.com/biz/nola-restaurant-and-bar-palo-alto,20,2,3.5,1846
Stacks,600 Santa Cruz Avenue,Menlo Park,CA,Diner,http://www.yelp.com/biz/stacks-menlo-park,20,2,3.5,450
Palo Alto Creamery,566 Emerson Street,Palo Alto,CA,Diner,http://www.yelp.com/biz/palo-alto-creamery-palo-alto-2,20,2,4.0,813
Arepera Guacuco,44 Irving Ave,Brooklyn,NY,Venezuelan,http://www.yelp.com/biz/arepera-guacuco-brooklyn-2,23,2,4.0,232
Momofuku,171 1st Ave,New York,NY,Ramen,http://www.yelp.com/biz/momofuku-noodle-bar-new-york,23,2,3.5,2585
Le Cirque,151 E 58th St,New York,NY,French,http://www.yelp.com/biz/le-cirque-new-york,23,4,3.5,618
La Mar,500 Brickell Key Dr,Miami,FL,Peruvian,http://www.yelp.com/biz/la-mar-by-gast%C3%B3n-acurio-miami,23,3,4.0,57
Franklin Barbecue,900 E 11th St,Austin,TX,BBQ,http://www.yelp.com/biz/franklin-barbecue-austin,23,2,4.5,1508
Salty Sow,1917 Manor,Austin,TX,American,http://www.yelp.com/biz/salty-sow-austin,23,2,4.5,668
La Condesa,400 W 2nd St,Austin,TX,Mexican,http://www.yelp.com/biz/la-condesa-austin,23,3,3.5,774
Elizabeth Street Café,1501 S 1st St,Austin,TX,Vietnamese,http://www.yelp.com/biz/elizabeth-street-cafe-austin,23,2,3.5,600
Cây Tre,301 Old Street,London,UK,Vietnamese,http://www.yelp.com/biz/c%C3%A2y-tre-london-3,23,0,4.0,91
El Cuartito,Talcahuano 937,Buenos Aires,AG,Pizza,http://www.yelp.com/biz/el-cuartito-buenos-aires,23,2,4.5,15
Bus Boys and Poets,2021 14th Ave NW,Washington,DC,New American,http://www.yelp.com/biz/busboys-and-poets-washington-2,24,2,4.0,1098
Surfish Peruvian Bistro,351 5th Ave,Brooklyn ,NY,Latin American,http://www.yelp.com/biz/surfish-peruvian-bistro-brooklyn,24,2,4.0,195
El Sabor Latino,620 4th Avenue,Brooklyn ,NY,Latin American,http://www.yelp.com/biz/el-sabor-latino-restaurant-brooklyn,24,1,3.5,6
Pure Bistro,88 5th Ave,Brooklyn ,NY,New American,http://www.yelp.com/biz/pure-bistro-brooklyn,24,2,4.0,75
Talde,369 7th Ave,Brooklyn ,NY,Asian Fusion,http://www.yelp.com/biz/talde-brooklyn,24,3,4.0,569
Momofuku Noodle Bar,171 1st Ave,New York ,NY,Asian Fusion,http://www.yelp.com/biz/momofuku-noodle-bar-new-york,24,2,3.5,2585
Catfish,1433 Bedford Ave,Brooklyn ,NY,Cajun,http://www.yelp.com/biz/catfish-brooklyn-2,24,2,4.0,203
Buttermilk Channel,524 Court Street,Brooklyn ,NY,New American,http://www.yelp.com/biz/buttermilk-channel-brooklyn,24,2,4.0,947
Juliana's,19 Old Fulton Road,Brooklyn ,NY,Pizza,http://www.yelp.com/biz/julianas-pizza-brooklyn,24,2,4.5,409
Joya,215 Court St,Brooklyn ,NY,Thai,http://www.yelp.com/biz/joya-brooklyn,24,2,4.0,759
